[{"OBJECT_NAME":"STARLINK-1595","OBJECT_ID":"2020-057AU","EPOCH":"2026-03-09T22:28:07.003488","MEAN_MOTION":15.50215839,"ECCENTRICITY":0.00065785,"INCLINATION":53.0492,"RA_OF_ASC_NODE":295.4863,"ARG_OF_PERICENTER":121.0092,"MEAN_ANOMALY":239.1563,"EPHEMERIS_TYPE":0,"CLASSIFICATION_TYPE":"U","NORAD_CAT_ID":46159,"ELEMENT_SET_NO":999,"REV_AT_EPOCH":30764,"BSTAR":0.0019946424,"MEAN_MOTION_DOT":0.00115887,"MEAN_MOTION_DDOT":0},{"OBJECT_NAME":"STARLINK-2512","OBJECT_ID":"2021-036AV","EPOCH":"2026-03-10T00:00:02.999808","MEAN_MOTION":15.25887089,"ECCENTRICITY":0.00016555,"INCLINATION":53.1399,"RA_OF_ASC_NODE":99.5161,"ARG_OF_PERICENTER":88.0612,"MEAN_ANOMALY":12.0977,"EPHEMERIS_TYPE":0,"CLASSIFICATION_TYPE":"U","NORAD_CAT_ID":48319,"ELEMENT_SET_NO":999,"REV_AT_EPOCH":574,"BSTAR":0.065509139,"MEAN_MOTION_DOT":0.01872924,"MEAN_MOTION_DDOT":0}]
